{"type": "FeatureCollection", "features": [ {"type": "Feature", "properties": {"norad_id": 41829, "name": "FENGYUN 1C DEB", "group": "fengyun-1c-debris", "lat": -28.371598962112706, "lon": -120.88189196733495, "alt_km": 773.7911784577782, "timestamp": "2025-12-20T16:47:36.577255+00:00", "meta": {"OBJECT_NAME": "FENGYUN 1C DEB", "OBJECT_ID": "1999-025EYG", "EPOCH": "2025-12-20T10:45:44.809056", "MEAN_MOTION": 14.25169894, "ECCENTRICITY": 0.0056833, "INCLINATION": 98.7441, "RA_OF_ASC_NODE": 63.6356, "ARG_OF_PERICENTER": 196.9937, "MEAN_ANOMALY": 162.934, "EPHEMERIS_TYPE": 0, "CLASSIFICATION_TYPE": "U", "NORAD_CAT_ID": 41829, "ELEMENT_SET_NO": 999, "REV_AT_EPOCH": 47417, "BSTAR": 0.0010508, "MEAN_MOTION_DOT": 2.465e-05, "MEAN_MOTION_DDOT": 0}, "tle": {"line1": "1 41829U 99025EYG 25354.44843529  .00002465  00000+0  10508-2 0  9999", "line2": "2 41829  98.7441  63.6356 0056833 196.9937 162.9340 14.25169894474174"}}, "geometry": {"type": "Point", "coordinates": [-120.88189196733495, -28.371598962112706]}}, {"type": "Feature", "properties": {"norad_id": 41830, "name": "FENGYUN 1C DEB", "group": "fengyun-1c-debris", "lat": 64.03535602406889, "lon": 48.234565128765794, "alt_km": 821.5057794197419, "timestamp": "2025-12-20T16:47:36.577265+00:00", "meta": {"OBJECT_NAME": "FENGYUN 1C DEB", "OBJECT_ID": "1999-025EYH", "EPOCH": "2025-12-17T16:05:53.922336", "MEAN_MOTION": 14.26488345, "ECCENTRICITY": 0.00548744, "INCLINATION": 98.7533, "RA_OF_ASC_NODE": 63.6517, "ARG_OF_PERICENTER": 202.7243, "MEAN_ANOMALY": 157.1507, "EPHEMERIS_TYPE": 0, "CLASSIFICATION_TYPE": "U", "NORAD_CAT_ID": 41830, "ELEMENT_SET_NO": 999, "REV_AT_EPOCH": 47344, "BSTAR": 0.001313768, "MEAN_MOTION_DOT": 3.172e-05, "MEAN_MOTION_DDOT": 0}, "tle": {"line1": "1 41830U 99025EYH 25351.67076299  .00003172  00000+0  13138-2 0  9993", "line2": "2 41830  98.7533  63.6517 0054874 202.7243 157.1507 14.26488345473442"}}, "geometry": {"type": "Point", "coordinates": [48.234565128765794, 64.03535602406889]}}, {"type": "Feature", "properties": {"norad_id": 41831, "name": "FENGYUN 1C DEB", "group": "fengyun-1c-debris", "lat": -18.01514172329576, "lon": -121.3530883763399, "alt_km": 774.0417660486219, "timestamp": "2025-12-20T16:47:36.577275+00:00", "meta": {"OBJECT_NAME": "FENGYUN 1C DEB", "OBJECT_ID": "1999-025EYJ", "EPOCH": "2025-12-19T02:46:53.581152", "MEAN_MOTION": 14.24609448, "ECCENTRICITY": 0.00565825, "INCLINATION": 98.7345, "RA_OF_ASC_NODE": 59.9378, "ARG_OF_PERICENTER": 203.0592, "MEAN_ANOMALY": 156.8046, "EPHEMERIS_TYPE": 0, "CLASSIFICATION_TYPE": "U", "NORAD_CAT_ID": 41831, "ELEMENT_SET_NO": 999, "REV_AT_EPOCH": 47350, "BSTAR": 0.0012229077, "MEAN_MOTION_DOT": 2.845e-05, "MEAN_MOTION_DDOT": 0}, "tle": {"line1": "1 41831U 99025EYJ 25353.11589793  .00002845  00000+0  12229-2 0  9999", "line2": "2 41831  98.7345  59.9378 0056582 203.0592 156.8046 14.24609448473504"}}, "geometry": {"type": "Point", "coordinates": [-121.3530883763399, -18.01514172329576]}}, {"type": "Feature", "properties": {"norad_id": 41832, "name": "FENGYUN 1C DEB", "group": "fengyun-1c-debris", "lat": -62.51297665859205, "lon": -138.50489843886163, "alt_km": 787.6198476971686, "timestamp": "2025-12-20T16:47:36.577285+00:00", "meta": {"OBJECT_NAME": "FENGYUN 1C DEB", "OBJECT_ID": "1999-025EYK", "EPOCH": "2025-12-19T10:59:26.935296", "MEAN_MOTION": 14.24281656, "ECCENTRICITY": 0.0055862, "INCLINATION": 98.729, "RA_OF_ASC_NODE": 57.4372, "ARG_OF_PERICENTER": 206.3958, "MEAN_ANOMALY": 153.4372, "EPHEMERIS_TYPE": 0, "CLASSIFICATION_TYPE": "U", "NORAD_CAT_ID": 41832, "ELEMENT_SET_NO": 999, "REV_AT_EPOCH": 47446, "BSTAR": 0.0011706, "MEAN_MOTION_DOT": 2.702e-05, "MEAN_MOTION_DDOT": 0}, "tle": {"line1": "1 41832U 99025EYK 25353.45795064  .00002702  00000+0  11706-2 0  9998", "line2": "2 41832  98.7290  57.4372 0055862 206.3958 153.4372 14.24281656474461"}}, "geometry": {"type": "Point", "coordinates": [-138.50489843886163, -62.51297665859205]}}, {"type": "Feature", "properties": {"norad_id": 41833, "name": "FENGYUN 1C DEB", "group": "fengyun-1c-debris", "lat": 43.52411062982143, "lon": -107.33993526941642, "alt_km": 785.0010774229577, "timestamp": "2025-12-20T16:47:36.577295+00:00", "meta": {"OBJECT_NAME": "FENGYUN 1C DEB", "OBJECT_ID": "1999-025EYL", "EPOCH": "2025-12-20T04:21:58.447008", "MEAN_MOTION": 14.25865852, "ECCENTRICITY": 0.0054815, "INCLINATION": 98.748, "RA_OF_ASC_NODE": 63.7341, "ARG_OF_PERICENTER": 202.1451, "MEAN_ANOMALY": 157.736, "EPHEMERIS_TYPE": 0, "CLASSIFICATION_TYPE": "U", "NORAD_CAT_ID": 41833, "ELEMENT_SET_NO": 999, "REV_AT_EPOCH": 47470, "BSTAR": 0.0012113, "MEAN_MOTION_DOT": 2.885e-05, "MEAN_MOTION_DDOT": 0}, "tle": {"line1": "1 41833U 99025EYL 25354.18192647  .00002885  00000+0  12113-2 0  9993", "line2": "2 41833  98.7480  63.7341 0054815 202.1451 157.7360 14.25865852474706"}}, "geometry": {"type": "Point", "coordinates": [-107.33993526941642, 43.52411062982143]}}, {"type": "Feature", "properties": {"norad_id": 43213, "name": "FENGYUN 1C DEB", "group": "fengyun-1c-debris", "lat": -73.19521683780853, "lon": 89.6466214928422, "alt_km": 812.3655912849817, "timestamp": "2025-12-20T16:47:36.577305+00:00", "meta": {"OBJECT_NAME": "FENGYUN 1C DEB", "OBJECT_ID": "1999-025EYM", "EPOCH": "2025-12-18T14:33:19.611072", "MEAN_MOTION": 14.23893333, "ECCENTRICITY": 0.00552662, "INCLINATION": 98.7338, "RA_OF_ASC_NODE": 56.9703, "ARG_OF_PERICENTER": 210.4712, "MEAN_ANOMALY": 149.3252, "EPHEMERIS_TYPE": 0, "CLASSIFICATION_TYPE": "U", "NORAD_CAT_ID": 43213, "ELEMENT_SET_NO": 999, "REV_AT_EPOCH": 40456, "BSTAR": 0.0011936049, "MEAN_MOTION_DOT": 2.735e-05, "MEAN_MOTION_DDOT": 0}, "tle": {"line1": "1 43213U 99025EYM 25352.60647698  .00002735  00000+0  11936-2 0  9999", "line2": "2 43213  98.7338  56.9703 0055266 210.4712 149.3252 14.23893333404568"}}, "geometry": {"type": "Point", "coordinates": [89.6466214928422, -73.19521683780853]}}, {"type": "Feature", "properties": {"norad_id": 43214, "name": "FENGYUN 1C DEB", "group": "fengyun-1c-debris", "lat": -36.9346869438483, "lon": -127.27489286422849, "alt_km": 778.5327601784547, "timestamp": "2025-12-20T16:47:36.577315+00:00", "meta": {"OBJECT_NAME": "FENGYUN 1C DEB", "OBJECT_ID": "1999-025EYN", "EPOCH": "2025-12-18T03:04:26.942304", "MEAN_MOTION": 14.24166763, "ECCENTRICITY": 0.00557639, "INCLINATION": 98.7359, "RA_OF_ASC_NODE": 56.8072, "ARG_OF_PERICENTER": 211.4547, "MEAN_ANOMALY": 148.3293, "EPHEMERIS_TYPE": 0, "CLASSIFICATION_TYPE": "U", "NORAD_CAT_ID": 43214, "ELEMENT_SET_NO": 999, "REV_AT_EPOCH": 40480, "BSTAR": 0.0012486468, "MEAN_MOTION_DOT": 2.879e-05, "MEAN_MOTION_DDOT": 0}, "tle": {"line1": "1 43214U 99025EYN 25352.12808961  .00002879  00000+0  12486-2 0  9999", "line2": "2 43214  98.7359  56.8072 0055763 211.4547 148.3293 14.24166763404801"}}, "geometry": {"type": "Point", "coordinates": [-127.27489286422849, -36.9346869438483]}}, {"type": "Feature", "properties": {"norad_id": 43358, "name": "FENGYUN 1C DEB", "group": "fengyun-1c-debris", "lat": 71.42594222823038, "lon": 86.55134554577408, "alt_km": 1182.0327505600408, "timestamp": "2025-12-20T16:47:36.577325+00:00", "meta": {"OBJECT_NAME": "FENGYUN 1C DEB", "OBJECT_ID": "1999-025EYP", "EPOCH": "2025-12-20T07:26:57.922368", "MEAN_MOTION": 13.40391897, "ECCENTRICITY": 0.0367689, "INCLINATION": 98.6873, "RA_OF_ASC_NODE": 113.2794, "ARG_OF_PERICENTER": 183.678, "MEAN_ANOMALY": 176.1634, "EPHEMERIS_TYPE": 0, "CLASSIFICATION_TYPE": "U", "NORAD_CAT_ID": 43358, "ELEMENT_SET_NO": 999, "REV_AT_EPOCH": 53832, "BSTAR": 0.0014509, "MEAN_MOTION_DOT": 1.146e-05, "MEAN_MOTION_DDOT": 0}, "tle": {"line1": "1 43358U 99025EYP 25354.31039262  .00001146  00000+0  14509-2 0  9995", "line2": "2 43358  98.6873 113.2794 0367689 183.6780 176.1634 13.40391897538329"}}, "geometry": {"type": "Point", "coordinates": [86.55134554577408, 71.42594222823038]}}, {"type": "Feature", "properties": {"norad_id": 43359, "name": "FENGYUN 1C DEB", "group": "fengyun-1c-debris", "lat": 80.82003106605195, "lon": -24.463312711681052, "alt_km": 815.8345338455738, "timestamp": "2025-12-20T16:47:36.577335+00:00", "meta": {"OBJECT_NAME": "FENGYUN 1C DEB", "OBJECT_ID": "1999-025EYQ", "EPOCH": "2025-12-20T04:33:28.300896", "MEAN_MOTION": 14.2322175, "ECCENTRICITY": 0.00733901, "INCLINATION": 99.0537, "RA_OF_ASC_NODE": 74.388, "ARG_OF_PERICENTER": 352.9112, "MEAN_ANOMALY": 7.1021, "EPHEMERIS_TYPE": 0, "CLASSIFICATION_TYPE": "U", "NORAD_CAT_ID": 43359, "ELEMENT_SET_NO": 999, "REV_AT_EPOCH": 47855, "BSTAR": 0.0013275572, "MEAN_MOTION_DOT": 3.041e-05, "MEAN_MOTION_DDOT": 0}, "tle": {"line1": "1 43359U 99025EYQ 25354.18991089  .00003041  00000+0  13276-2 0  9991", "line2": "2 43359  99.0537  74.3880 0073390 352.9112   7.1021 14.23221750478551"}}, "geometry": {"type": "Point", "coordinates": [-24.463312711681052, 80.82003106605195]}}, {"type": "Feature", "properties": {"norad_id": 45526, "name": "FENGYUN 1C DEB", "group": "fengyun-1c-debris", "lat": -75.14799297103022, "lon": 102.42345340163205, "alt_km": 806.8039334905152, "timestamp": "2025-12-20T16:47:36.577345+00:00", "meta": {"OBJECT_NAME": "FENGYUN 1C DEB", "OBJECT_ID": "1999-025EYR", "EPOCH": "2025-12-20T03:41:18.829824", "MEAN_MOTION": 14.25995615, "ECCENTRICITY": 0.00547341, "INCLINATION": 98.7634, "RA_OF_ASC_NODE": 66.3083, "ARG_OF_PERICENTER": 201.5647, "MEAN_ANOMALY": 158.3227, "EPHEMERIS_TYPE": 0, "CLASSIFICATION_TYPE": "U", "NORAD_CAT_ID": 45526, "ELEMENT_SET_NO": 999, "REV_AT_EPOCH": 43482, "BSTAR": 0.0011953993, "MEAN_MOTION_DOT": 2.854e-05, "MEAN_MOTION_DDOT": 0}, "tle": {"line1": "1 45526U 99025EYR 25354.15369016  .00002854  00000+0  11954-2 0  9997", "line2": "2 45526  98.7634  66.3083 0054734 201.5647 158.3227 14.25995615434821"}}, "geometry": {"type": "Point", "coordinates": [102.42345340163205, -75.14799297103022]}}]}